{
  "type": "FeatureCollection",
  "features": [
    {
      "type": "Feature",
      "properties": {
        "norad_id": 29770,
        "name": "FENGYUN 1C DEB",
        "group": "fengyun-1c-debris",
        "lat": -47.3499597949193,
        "lon": 71.78902018879788,
        "alt_km": 797.0197586216336,
        "timestamp": "2025-12-12T11:38:31.683081+00:00",
        "meta_object_name": "FENGYUN 1C DEB",
        "meta_object_id": "1999-025BL",
        "meta_epoch": "2025-12-11T16:18:23.937408",
        "meta_mean_motion": 14.20105451,
        "meta_eccentricity": 0.00626785,
        "meta_inclination": 98.8463,
        "meta_ra_of_asc_node": 61.2503,
        "meta_arg_of_pericenter": 274.3037,
        "meta_mean_anomaly": 240.7519,
        "meta_ephemeris_type": 0,
        "meta_classification_type": "U",
        "meta_norad_cat_id": 29770,
        "meta_element_set_no": 999,
        "meta_rev_at_epoch": 97071,
        "meta_bstar": 0.0023206891,
        "meta_mean_motion_dot": 5.002e-05,
        "meta_mean_motion_ddot": 0,
        "tle_line1": "1 29770U 99025BL  25345.67944372  .00005002  00000+0  23207-2 0  9993",
        "tle_line2": "2 29770  98.8463  61.2503 0062678 274.3037 240.7519 14.20105451970712"
      },
      "geometry": {
        "type": "Point",
        "coordinates": [
          71.78902018879788,
          -47.3499597949193
        ]
      }
    },
    {
      "type": "Feature",
      "properties": {
        "norad_id": 29772,
        "name": "FENGYUN 1C DEB",
        "group": "fengyun-1c-debris",
        "lat": -64.20759088270033,
        "lon": -2.073680640221284,
        "alt_km": 818.8268795818658,
        "timestamp": "2025-12-12T11:38:31.683091+00:00",
        "meta_object_name": "FENGYUN 1C DEB",
        "meta_object_id": "1999-025BN",
        "meta_epoch": "2025-12-10T07:59:03.938208",
        "meta_mean_motion": 14.0319606,
        "meta_eccentricity": 0.0138223,
        "meta_inclination": 98.3886,
        "meta_ra_of_asc_node": 193.7194,
        "meta_arg_of_pericenter": 297.041,
        "meta_mean_anomaly": 242.7077,
        "meta_ephemeris_type": 0,
        "meta_classification_type": "U",
        "meta_norad_cat_id": 29772,
        "meta_element_set_no": 999,
        "meta_rev_at_epoch": 96221,
        "meta_bstar": 0.0016568,
        "meta_mean_motion_dot": 2.769e-05,
        "meta_mean_motion_ddot": 0,
        "tle_line1": "1 29772U 99025BN  25344.33268447  .00002769  00000+0  16568-2 0  9998",
        "tle_line2": "2 29772  98.3886 193.7194 0138223 297.0410 242.7077 14.03196060962216"
      },
      "geometry": {
        "type": "Point",
        "coordinates": [
          -2.073680640221284,
          -64.20759088270033
        ]
      }
    },
    {
      "type": "Feature",
      "properties": {
        "norad_id": 29773,
        "name": "FENGYUN 1C DEB",
        "group": "fengyun-1c-debris",
        "lat": -80.91433617375148,
        "lon": -138.1705780888835,
        "alt_km": 775.92081078506,
        "timestamp": "2025-12-12T11:38:31.683101+00:00",
        "meta_object_name": "FENGYUN 1C DEB",
        "meta_object_id": "1999-025BP",
        "meta_epoch": "2025-12-11T21:38:09.574080",
        "meta_mean_motion": 14.27567728,
        "meta_eccentricity": 0.0046362,
        "meta_inclination": 98.9875,
        "meta_ra_of_asc_node": 139.4801,
        "meta_arg_of_pericenter": 293.136,
        "meta_mean_anomaly": 220.8267,
        "meta_ephemeris_type": 0,
        "meta_classification_type": "U",
        "meta_norad_cat_id": 29773,
        "meta_element_set_no": 999,
        "meta_rev_at_epoch": 98185,
        "meta_bstar": 0.00056812,
        "meta_mean_motion_dot": 1.366e-05,
        "meta_mean_motion_ddot": 0,
        "tle_line1": "1 29773U 99025BP  25345.90149970  .00001366  00000+0  56812-3 0  9991",
        "tle_line2": "2 29773  98.9875 139.4801 0046362 293.1360 220.8267 14.27567728981854"
      },
      "geometry": {
        "type": "Point",
        "coordinates": [
          -138.1705780888835,
          -80.91433617375148
        ]
      }
    },
    {
      "type": "Feature",
      "properties": {
        "norad_id": 29774,
        "name": "FENGYUN 1C DEB",
        "group": "fengyun-1c-debris",
        "lat": -61.76898253622971,
        "lon": 89.48525398597293,
        "alt_km": 841.0042427005228,
        "timestamp": "2025-12-12T11:38:31.683111+00:00",
        "meta_object_name": "FENGYUN 1C DEB",
        "meta_object_id": "1999-025BQ",
        "meta_epoch": "2025-12-11T19:26:56.292000",
        "meta_mean_motion": 14.22731291,
        "meta_eccentricity": 0.0051061,
        "meta_inclination": 99.076,
        "meta_ra_of_asc_node": 286.1115,
        "meta_arg_of_pericenter": 125.8861,
        "meta_mean_anomaly": 262.8507,
        "meta_ephemeris_type": 0,
        "meta_classification_type": "U",
        "meta_norad_cat_id": 29774,
        "meta_element_set_no": 999,
        "meta_rev_at_epoch": 98062,
        "meta_bstar": 0.00026781,
        "meta_mean_motion_dot": 5.61e-06,
        "meta_mean_motion_ddot": 0,
        "tle_line1": "1 29774U 99025BQ  25345.81037375  .00000561  00000+0  26781-3 0  9995",
        "tle_line2": "2 29774  99.0760 286.1115 0051061 125.8861 262.8507 14.22731291980627"
      },
      "geometry": {
        "type": "Point",
        "coordinates": [
          89.48525398597293,
          -61.76898253622971
        ]
      }
    },
    {
      "type": "Feature",
      "properties": {
        "norad_id": 29776,
        "name": "FENGYUN 1C DEB",
        "group": "fengyun-1c-debris",
        "lat": 36.3986519874414,
        "lon": -160.21869980522465,
        "alt_km": 874.685022689363,
        "timestamp": "2025-12-12T11:38:31.683121+00:00",
        "meta_object_name": "FENGYUN 1C DEB",
        "meta_object_id": "1999-025BS",
        "meta_epoch": "2025-12-12T00:59:10.455936",
        "meta_mean_motion": 14.07774244,
        "meta_eccentricity": 0.0022803,
        "meta_inclination": 98.7713,
        "meta_ra_of_asc_node": 12.8144,
        "meta_arg_of_pericenter": 272.9218,
        "meta_mean_anomaly": 141.3803,
        "meta_ephemeris_type": 0,
        "meta_classification_type": "U",
        "meta_norad_cat_id": 29776,
        "meta_element_set_no": 999,
        "meta_rev_at_epoch": 97070,
        "meta_bstar": 0.00020354,
        "meta_mean_motion_dot": 3.02e-06,
        "meta_mean_motion_ddot": 0,
        "tle_line1": "1 29776U 99025BS  25346.04109324  .00000302  00000+0  20354-3 0  9990",
        "tle_line2": "2 29776  98.7713  12.8144 0022803 272.9218 141.3803 14.07774244970707"
      },
      "geometry": {
        "type": "Point",
        "coordinates": [
          -160.21869980522465,
          36.3986519874414
        ]
      }
    },
    {
      "type": "Feature",
      "properties": {
        "norad_id": 29777,
        "name": "FENGYUN 1C DEB",
        "group": "fengyun-1c-debris",
        "lat": -22.994443450640585,
        "lon": -140.63327160839356,
        "alt_km": 859.4397904180832,
        "timestamp": "2025-12-12T11:38:31.683132+00:00",
        "meta_object_name": "FENGYUN 1C DEB",
        "meta_object_id": "1999-025BT",
        "meta_epoch": "2025-12-11T23:11:46.052736",
        "meta_mean_motion": 13.92104104,
        "meta_eccentricity": 0.0092694,
        "meta_inclination": 99.2837,
        "meta_ra_of_asc_node": 42.8277,
        "meta_arg_of_pericenter": 211.8304,
        "meta_mean_anomaly": 273.9892,
        "meta_ephemeris_type": 0,
        "meta_classification_type": "U",
        "meta_norad_cat_id": 29777,
        "meta_element_set_no": 999,
        "meta_rev_at_epoch": 96030,
        "meta_bstar": 0.0002801,
        "meta_mean_motion_dot": 3.26e-06,
        "meta_mean_motion_ddot": 0,
        "tle_line1": "1 29777U 99025BT  25345.96650524  .00000326  00000+0  28010-3 0  9997",
        "tle_line2": "2 29777  99.2837  42.8277 0092694 211.8304 273.9892 13.92104104960304"
      },
      "geometry": {
        "type": "Point",
        "coordinates": [
          -140.63327160839356,
          -22.994443450640585
        ]
      }
    },
    {
      "type": "Feature",
      "properties": {
        "norad_id": 29779,
        "name": "FENGYUN 1C DEB",
        "group": "fengyun-1c-debris",
        "lat": 35.80871054853678,
        "lon": -175.94484118257944,
        "alt_km": 802.33285366774,
        "timestamp": "2025-12-12T11:38:31.683142+00:00",
        "meta_object_name": "FENGYUN 1C DEB",
        "meta_object_id": "1999-025BV",
        "meta_epoch": "2025-12-11T06:04:56.854848",
        "meta_mean_motion": 14.13440852,
        "meta_eccentricity": 0.00634412,
        "meta_inclination": 98.6773,
        "meta_ra_of_asc_node": 356.5351,
        "meta_arg_of_pericenter": 168.3803,
        "meta_mean_anomaly": 191.8851,
        "meta_ephemeris_type": 0,
        "meta_classification_type": "U",
        "meta_norad_cat_id": 29779,
        "meta_element_set_no": 999,
        "meta_rev_at_epoch": 97391,
        "meta_bstar": 0.00035996643,
        "meta_mean_motion_dot": 6.47e-06,
        "meta_mean_motion_ddot": 0,
        "tle_line1": "1 29779U 99025BV  25345.25343582  .00000647  00000+0  35997-3 0  9992",
        "tle_line2": "2 29779  98.6773 356.5351 0063441 168.3803 191.8851 14.13440852973915"
      },
      "geometry": {
        "type": "Point",
        "coordinates": [
          -175.94484118257944,
          35.80871054853678
        ]
      }
    }
  ]
}